{
    "links": {
        "self": "http://www.neowsapp.com/rest/v1/neo/54049787?api_key=iIulBulltgU6a56xZRHN4H3l9WmuAYTsLGpBGhQ2"
    },
    "id": "54049787",
    "neo_reference_id": "54049787",
    "name": "(2020 OS4)",
    "designation": "2020 OS4",
    "nasa_jpl_url": "http://ssd.jpl.nasa.gov/sbdb.cgi?sstr=54049787",
    "absolute_magnitude_h": 22.25,
    "estimated_diameter": {
        "kilometers": {
            "estimated_diameter_min": 0.0943093989,
            "estimated_diameter_max": 0.2108822268
        },
        "meters": {
            "estimated_diameter_min": 94.3093988583,
            "estimated_diameter_max": 210.8822267643
        },
        "miles": {
            "estimated_diameter_min": 0.0586011255,
            "estimated_diameter_max": 0.1310361001
        },
        "feet": {
            "estimated_diameter_min": 309.4140481502,
            "estimated_diameter_max": 691.8708448573
        }
    },
    "is_potentially_hazardous_asteroid": false,
    "close_approach_data": [
        {
            "close_approach_date": "2020-08-01",
            "close_approach_date_full": "2020-Aug-01 03:15",
            "epoch_date_close_approach": 1596251700000,
            "relative_velocity": {
                "kilometers_per_second": "18.5863972156",
                "kilometers_per_hour": "66911.029976277",
                "miles_per_hour": "41575.9119316483"
            },
            "miss_distance": {
                "astronomical": "0.2358164555",
                "lunar": "91.7326011895",
                "kilometers": "35277639.453749785",
                "miles": "21920508.689065633"
            },
            "orbiting_body": "Earth"
        }
    ],
    "orbital_data": {
        "orbit_id": "6",
        "orbit_determination_date": "2020-08-07 06:06:52",
        "first_observation_date": "2020-07-22",
        "last_observation_date": "2020-08-07",
        "data_arc_in_days": 16,
        "observations_used": 45,
        "orbit_uncertainty": "8",
        "minimum_orbit_intersection": ".234237",
        "jupiter_tisserand_invariant": "3.410",
        "epoch_osculation": "2459055.5",
        "eccentricity": ".4340092559454686",
        "semi_major_axis": "2.115984115585614",
        "inclination": "34.14615297207962",
        "ascending_node_longitude": "304.8369653868521",
        "orbital_period": "1124.260705298299",
        "perihelion_distance": "1.197627423987871",
        "perihelion_argument": "33.38510498703171",
        "aphelion_distance": "3.034340807183356",
        "perihelion_time": "2459092.918367550056",
        "mean_anomaly": "348.0182485658911",
        "mean_motion": ".3202104265526932",
        "equinox": "J2000",
        "orbit_class": {
            "orbit_class_type": "AMO",
            "orbit_class_description": "Near-Earth asteroid orbits similar to that of 1221 Amor",
            "orbit_class_range": "1.017 AU < q (perihelion) < 1.3 AU"
        }
    },
    "is_sentry_object": false
}